STARLINK-31             
1 44235C 19029A   20173.50536016  .00123782  00000-0  26321-2 0  1731
2 44235  53.0044 188.5555 0003441 291.5094 179.6388 15.44266529    12
STARLINK-22             
1 44236C 19029B   20173.44580502  .00017593  00000-0  14408-3 0  1730
2 44236  53.0016 148.8918 0006755 272.9072 313.4465 15.69796130    11
STARLINK-23             
1 44237C 19029C   20173.50685545 -.00001076  00000-0 -23301-4 0  1735
2 44237  52.9949 187.9884 0001274 110.7711 113.8593 15.43868119    14
STARLINK-25             
1 44239C 19029E   20173.50742828  .00001349  00000-0  29217-4 0  1738
2 44239  53.0043 187.4649 0001207  74.0998  63.2541 15.43855342    17
STARLINK-27             
1 44241C 19029G   20173.49327265 -.00006454  00000-0 -13967-3 0  1731
2 44241  53.0054 188.4654 0001084  81.5221 121.5484 15.43882833    13
STARLINK-28             
1 44242C 19029H   20173.44392181  .01290010  00000-0  14422-1 0  1733
2 44242  52.9914 143.0470 0001170  70.6849 158.0312 15.60820235    13
STARLINK-29             
1 44243C 19029J   20173.16358571  .00007471  00000-0  98004-4 0  1735
2 44243  53.0000  93.1841 0008162 217.5263 245.9095 15.57867516    12
STARLINK-30             
1 44244C 19029K   20173.50076220  .00008915  00000-0  19297-3 0  1732
2 44244  52.9950 187.9182 0001217 104.9362  25.7900 15.43863236    17
STARLINK-21             
1 44245C 19029L   20173.47867532 -.00081903  00000-0 -19151-2 0  1731
2 44245  52.9965 188.7114 0002937 163.1289  40.3278 15.41652672    12
STARLINK-33             
1 44247C 19029N   20173.05794115 -.00008601  00000-0 -68084-4 0  1738
2 44247  53.0042 145.4920 0001166  69.6178 337.1292 15.70668323    12
STARLINK-34             
1 44248C 19029P   20173.43295022  .00013935  00000-0  11473-3 0  1737
2 44248  52.9991 152.9935 0001169  72.6297  63.6015 15.69701873    12
STARLINK-36             
1 44250C 19029R   20173.49509662  .00008984  00000-0  19448-3 0  1732
2 44250  52.9947 188.0373 0000555  98.4497  30.7967 15.43862215    19
STARLINK-37             
1 44251C 19029S   20173.49526889 -.00010766  00000-0 -23297-3 0  1733
2 44251  52.9763 187.0443 0001283 128.5713   7.6183 15.43889401    17
STARLINK-71             
1 44252C 19029T   20173.39839909  .00003800  00000-0  21634-3 0  1735
2 44252  52.9977 191.7979 0000245 154.2813 315.9027 15.12329941    11
STARLINK-39             
1 44253C 19029U   20173.49502326 -.00014292  00000-0 -30929-3 0  1733
2 44253  53.0042 188.4173 0001149  84.2053 116.5947 15.43893500    15
STARLINK-32             
1 44254C 19029V   20173.50468861  .00009199  00000-0  19913-3 0  1739
2 44254  52.9943 187.9901 0001208 121.4423  85.1271 15.43862792    18
STARLINK-66             
1 44255C 19029W   20173.16442236  .00002847  00000-0  31832-4 0  1738
2 44255  53.0016 145.8421 0000824  84.5542 340.3945 15.62096098    19
STARLINK-42             
1 44256C 19029X   20173.39318353  .00017432  00000-0  16163-3 0  1731
2 44256  52.9920 144.9216 0004890 334.6019 162.3882 15.66784360    11
STARLINK-43             
1 44257C 19029Y   20173.42495543  .00008667  00000-0  27741-3 0  1737
2 44257  53.0008 138.8808 0000623  42.7581 183.2847 15.31837289    15
STARLINK-40             
1 44258C 19029Z   20173.49266438  .00009069  00000-0  19634-3 0  1733
2 44258  52.9948 188.0559 0001241 124.7982   8.8910 15.43856002    10
STARLINK-52             
1 44259C 19029AA  20172.94245750 -.00000710  00000-0 -72842-5 0  1724
2 44259  53.0015  95.6993 0000843  76.9113 236.9755 15.64296919    13
STARLINK-45             
1 44260C 19029AB  20173.50112601 -.00011074  00000-0 -23971-3 0  1730
2 44260  53.0054 186.9480 0000909 110.9521  99.8176 15.43884018    11
STARLINK-44             
1 44261C 19029AC  20173.49405690  .00009172  00000-0  19859-3 0  1736
2 44261  52.9945 188.0281 0000841  84.2368  51.1918 15.43854738    19
STARLINK-49             
1 44262C 19029AD  20173.49305938  .00009303  00000-0  20138-3 0  1739
2 44262  53.0055 188.4740 0001168  95.9215 111.9443 15.43861257    13
STARLINK-72             
1 44263C 19029AE  20173.43420319 -.00006492  00000-0 -14051-3 0  1730
2 44263  52.9959 188.1859 0001311 103.7376  10.8965 15.43879958    12
STARLINK-35             
1 44264C 19029AF  20173.49943406  .00009006  00000-0  19494-3 0  1732
2 44264  52.9948 187.9604 0001261 112.9628  22.3819 15.43861486    15
STARLINK-63             
1 44265C 19029AG  20173.49822009  .00008937  00000-0  19343-3 0  1733
2 44265  52.9943 187.3357 0001084 105.6813  28.8894 15.43864199    16
STARLINK-54             
1 44266C 19029AH  20173.47176468 -.00005538  00000-0 -11985-3 0  1733
2 44266  52.9964 187.4235 0001142  78.6864  52.7927 15.43881730    19
STARLINK-69             
1 44267C 19029AJ  20173.50071703 -.00011800  00000-0 -25537-3 0  1731
2 44267  52.9968 187.1719 0001290 120.3189 100.1771 15.43887738    16
STARLINK-55             
1 44268C 19029AK  20173.43498200  .00511598  00000-0  56729-2 0  1732
2 44268  52.9916 143.9031 0001102  81.7482 144.7541 15.61800249    16
STARLINK-57             
1 44269C 19029AL  20173.49228396  .00009202  00000-0  19916-3 0  1738
2 44269  52.9991 187.7501 0000962 113.7513  95.7829 15.43864623    12
STARLINK-58             
1 44270C 19029AM  20173.44006281  .00009958  00000-0  12199-3 0  1736
2 44270  53.0013 154.2052 0000269 302.8699 200.8140 15.59716309    16
STARLINK-59             
1 44271C 19029AN  20173.50115516 -.00001639  00000-0 -35502-4 0  1730
2 44271  52.9937 187.2433 0000889  96.9779  18.0004 15.43856130    15
STARLINK-51             
1 44272C 19029AP  20173.50035032  .00036399  00000-0  78810-3 0  1732
2 44272  52.9931 187.8722 0001054  90.3498  44.1367 15.43826883    12
STARLINK-62             
1 44274C 19029AR  20173.39034699  .00013296  00000-0  10943-3 0  1733
2 44274  53.0035 153.3299 0001264 124.9826  95.7100 15.69713038    12
STARLINK-64             
1 44275C 19029AS  20173.43821443  .00008615  00000-0  22586-3 0  1735
2 44275  52.9900 165.5703 0005944 338.5423 224.7725 15.38074195    19
STARLINK-65             
1 44276C 19029AT  20173.39804861  .00004965  00000-0  11012-3 0  1732
2 44276  52.9984 188.5972 0001104  54.6144  51.2109 15.43146054    14
STARLINK-41             
1 44277C 19029AU  20173.38327477  .00006962  00000-0  57333-4 0  1731
2 44277  53.0051 145.3814 0001460  42.3902 181.5867 15.69702426    16
STARLINK-68             
1 44279C 19029AW  20173.51094241  .00096394  00000-0  19375-2 0  1738
2 44279  52.9940 186.9465 0001244 105.0886  22.8454 15.45945851    18
STARLINK-38             
1 44280C 19029AX  20173.50829341  .00008820  00000-0  19090-3 0  1738
2 44280  52.9973 187.7705 0001098  81.4447  55.1831 15.43864727    17
STARLINK-70             
1 44281C 19029AY  20173.44787904  .00005718  00000-0  17972-3 0  1730
2 44281  52.9976 188.6317 0000592 102.9884  13.8269 15.32423682    17
STARLINK-56             
1 44283C 19029BA  20173.50620815  .00008869  00000-0  19196-3 0  1736
2 44283  52.9967 187.8637 0001305  83.9996  53.0338 15.43865406    19
STARLINK-73             
1 44284C 19029BB  20173.50678361  .00009001  00000-0  19488-3 0  1739
2 44284  52.9968 187.8348 0001142  94.3237  39.8560 15.43857033    19
STARLINK-50             
1 44285C 19029BC  20173.50341713  .00008679  00000-0  18780-3 0  1732
2 44285  52.9998 189.2610 0001439  94.8547  38.6287 15.43871089    19
STARLINK-75             
1 44286C 19029BD  20173.47650651  .00918715  00000-0  10835-1 0  1735
2 44286  53.0028 146.1713 0001627 294.8865 307.2005 15.59802973    12
STARLINK-76             
1 44287C 19029BE  20173.50322448  .00009130  00000-0  19763-3 0  1733
2 44287  52.9951 188.0269 0000903 129.4157  80.9823 15.43862373    16
STARLINK-79             
1 44288C 19029BF  20173.40793716  .00006709  00000-0  14526-3 0  1734
2 44288  53.0072 188.9608 0001164 101.0612  11.4644 15.43857487    11
STARLINK-48             
1 44289C 19029BG  20173.49279319  .00006242  00000-0  28562-3 0  1739
2 44289  53.0022 164.9395 0000329 165.4606 328.1578 15.19993001    13
STARLINK-78             
1 44290C 19029BH  20173.40916012 -.00001936  00000-0 -41888-4 0  1734
2 44290  53.0065 188.8446 0001169  81.9049  31.4136 15.43879303    19
STARLINK-77             
1 44291C 19029BJ  20173.40379286  .00006422  00000-0  13909-3 0  1736
2 44291  53.0085 189.0571 0001196  90.9829  16.5012 15.43848696    18
STARLINK-81             
1 44292C 19029BK  20173.40212909 -.00018333  00000-0 -39697-3 0  1733
2 44292  53.0086 189.0905 0001330  65.7637  44.4842 15.43879655    18
STARLINK-74             
1 44293C 19029BL  20173.49739520  .00009228  00000-0  19986-3 0  1736
2 44293  53.0051 188.4771 0001160 100.1474 119.8724 15.43846565    19
STARLINK-53             
1 44294C 19029BM  20173.51002311  .00008797  00000-0  19041-3 0  1733
2 44294  52.9955 187.1698 0001339  83.8898  50.3608 15.43864021    17
STARLINK-1007           
1 44713C 19074A   20173.50550627  .00006436  00000-0  44101-3 0  1739
2 44713  52.9977 196.3538 0001209  93.8950  53.9055 15.05557802    17
STARLINK-1008           
1 44714C 19074B   20173.48867218  .00032134  00000-0  22008-2 0  1739
2 44714  52.9990 196.4228 0001407  83.4946  62.9351 15.05551361    13
STARLINK-1009           
1 44715C 19074C   20173.40532343  .00003213  00000-0  22005-3 0  1734
2 44715  52.9977 196.8047 0001117  89.8749  18.6491 15.05582649    17
STARLINK-1010           
1 44716C 19074D   20173.44110198  .00004094  00000-0  32469-3 0  1732
2 44716  52.9874 196.4728 0001160  95.0779  21.9084 15.00051005    13
STARLINK-1011           
1 44717C 19074E   20173.42739424  .00025929  00000-0  17763-2 0  1739
2 44717  52.9984 216.7068 0000871 102.9380 357.0757 15.05547110    15
STARLINK-1012           
1 44718C 19074F   20173.39127576  .00002064  00000-0  14143-3 0  1730
2 44718  52.9980 196.8636 0001159 101.2828   2.9333 15.05569436    11
